0 COSMOS 1275 DEB
1 13074U 81053FA  13281.12990400  .00000424  00000-0  39050-3 0  8575
2 13074 082.9486 051.3479 0030288 011.7358 053.4042 13.80369571616520
0 COSMOS 1275 DEB
1 13074U 81053FA  13282.36173589  .00000429  00000-0  39453-3 0  8586
2 13074 082.9488 050.4279 0030216 008.0825 054.9673 13.80371777616694
0 COSMOS 1275 DEB
1 13074U 81053FA  13285.40521531  .00000379  00000-0  34703-3 0  8596
2 13074 082.9494 048.1542 0030039 359.2285 059.3369 13.80374152617111
0 COSMOS 1275 DEB
1 13074U 81053FA  13286.42121124  .00000397  00000-0  36407-3 0  8608
2 13074 082.9496 047.3954 0029998 356.2556 068.2854 13.80374819617254
0 COSMOS 1275 DEB
1 13074U 81053FA  13288.37612779  .00000536  00000-0  49744-3 0  8619
2 13074 082.9498 045.9353 0029912 350.5135 063.1907 13.80376802617526
0 COSMOS 1275 DEB
1 13074U 81053FA  13289.84031668  .00000504  00000-0  46701-3 0  8620
2 13074 082.9499 044.8416 0029868 346.1586 139.5010 13.80378227617724
0 COSMOS 1275 DEB
1 13074U 81053FA  13291.34792110  .00000501  00000-0  46392-3 0  8638
2 13074 082.9499 043.7157 0029803 341.7471 071.5003 13.80379472617930
0 COSMOS 1275 DEB
1 13074U 81053FA  13292.36646571  .00000520  00000-0  48152-3 0  8648
2 13074 082.9497 042.9548 0029784 338.7261 093.1753 13.80380322618078
0 COSMOS 1275 DEB
1 13074U 81053FA  13293.37962769  .00000533  00000-0  49460-3 0  8658
2 13074 082.9497 042.1981 0029768 335.7080 088.1173 13.80381414618218
0 COSMOS 1275 DEB
1 13074U 81053FA  13294.39555749  .00000520  00000-0  48162-3 0  8662
2 13074 082.9497 041.4394 0029737 332.7503 096.7486 13.80382769618352
